{
  "type": "FeatureCollection",
  "features": [
    {
      "type": "Feature",
      "properties": {
        "norad_id": 35152,
        "name": "FENGYUN 1C DEB",
        "group": "fengyun-1c-debris",
        "lat": -72.88783140985856,
        "lon": -34.75100799301989,
        "alt_km": 991.9527754976607,
        "timestamp": "2025-12-22T11:33:20.727112+00:00",
        "meta_object_name": "FENGYUN 1C DEB",
        "meta_object_id": "1999-025DMG",
        "meta_epoch": "2025-12-16T18:13:57.032832",
        "meta_mean_motion": 13.7643783,
        "meta_eccentricity": 0.01945259,
        "meta_inclination": 99.8194,
        "meta_ra_of_asc_node": 173.5777,
        "meta_arg_of_pericenter": 5.0809,
        "meta_mean_anomaly": 355.2255,
        "meta_ephemeris_type": 0,
        "meta_classification_type": "U",
        "meta_norad_cat_id": 35152,
        "meta_element_set_no": 999,
        "meta_rev_at_epoch": 62248,
        "meta_bstar": 0.00057948786,
        "meta_mean_motion_dot": 6.03e-06,
        "meta_mean_motion_ddot": 0,
        "tle_line1": "1 35152U 99025DMG 25350.75968788  .00000603  00000+0  57949-3 0  9999",
        "tle_line2": "2 35152  99.8194 173.5777 0194525   5.0809 355.2255 13.76437830622484"
      },
      "geometry": {
        "type": "Point",
        "coordinates": [
          -34.75100799301989,
          -72.88783140985856
        ]
      }
    },
    {
      "type": "Feature",
      "properties": {
        "norad_id": 35153,
        "name": "FENGYUN 1C DEB",
        "group": "fengyun-1c-debris",
        "lat": -73.9318137133207,
        "lon": -77.79721619920291,
        "alt_km": 731.4075428636361,
        "timestamp": "2025-12-22T11:33:20.727122+00:00",
        "meta_object_name": "FENGYUN 1C DEB",
        "meta_object_id": "1999-025DMH",
        "meta_epoch": "2025-12-21T22:52:03.552960",
        "meta_mean_motion": 14.73783964,
        "meta_eccentricity": 0.0170931,
        "meta_inclination": 98.9023,
        "meta_ra_of_asc_node": 248.6541,
        "meta_arg_of_pericenter": 54.5717,
        "meta_mean_anomaly": 307.1314,
        "meta_ephemeris_type": 0,
        "meta_classification_type": "U",
        "meta_norad_cat_id": 35153,
        "meta_element_set_no": 999,
        "meta_rev_at_epoch": 97353,
        "meta_bstar": 0.0003795,
        "meta_mean_motion_dot": 3.066e-05,
        "meta_mean_motion_ddot": 0,
        "tle_line1": "1 35153U 99025DMH 25355.95281890  .00003066  00000+0  37950-3 0  9995",
        "tle_line2": "2 35153  98.9023 248.6541 0170931  54.5717 307.1314 14.73783964973538"
      },
      "geometry": {
        "type": "Point",
        "coordinates": [
          -77.79721619920291,
          -73.9318137133207
        ]
      }
    },
    {
      "type": "Feature",
      "properties": {
        "norad_id": 35154,
        "name": "FENGYUN 1C DEB",
        "group": "fengyun-1c-debris",
        "lat": 66.95283675203059,
        "lon": -38.452445475212066,
        "alt_km": 833.6881971429784,
        "timestamp": "2025-12-22T11:33:20.727132+00:00",
        "meta_object_name": "FENGYUN 1C DEB",
        "meta_object_id": "1999-025DMJ",
        "meta_epoch": "2025-12-21T14:44:17.053728",
        "meta_mean_motion": 14.18909394,
        "meta_eccentricity": 0.0179024,
        "meta_inclination": 99.4221,
        "meta_ra_of_asc_node": 117.6528,
        "meta_arg_of_pericenter": 17.5176,
        "meta_mean_anomaly": 343.2066,
        "meta_ephemeris_type": 0,
        "meta_classification_type": "U",
        "meta_norad_cat_id": 35154,
        "meta_element_set_no": 999,
        "meta_rev_at_epoch": 64703,
        "meta_bstar": 0.00022139,
        "meta_mean_motion_dot": 4.9e-06,
        "meta_mean_motion_ddot": 0,
        "tle_line1": "1 35154U 99025DMJ 25355.61408627  .00000490  00000+0  22139-3 0  9999",
        "tle_line2": "2 35154  99.4221 117.6528 0179024  17.5176 343.2066 14.18909394647039"
      },
      "geometry": {
        "type": "Point",
        "coordinates": [
          -38.452445475212066,
          66.95283675203059
        ]
      }
    },
    {
      "type": "Feature",
      "properties": {
        "norad_id": 35155,
        "name": "FENGYUN 1C DEB",
        "group": "fengyun-1c-debris",
        "lat": -61.555490158150825,
        "lon": 171.7296443168384,
        "alt_km": 852.6796413451666,
        "timestamp": "2025-12-22T11:33:20.727142+00:00",
        "meta_object_name": "FENGYUN 1C DEB",
        "meta_object_id": "1999-025DMK",
        "meta_epoch": "2025-12-13T11:32:29.448096",
        "meta_mean_motion": 14.19285709,
        "meta_eccentricity": 0.00260991,
        "meta_inclination": 98.5012,
        "meta_ra_of_asc_node": 359.121,
        "meta_arg_of_pericenter": 70.7543,
        "meta_mean_anomaly": 289.6454,
        "meta_ephemeris_type": 0,
        "meta_classification_type": "U",
        "meta_norad_cat_id": 35155,
        "meta_element_set_no": 999,
        "meta_rev_at_epoch": 72724,
        "meta_bstar": 0.00090034288,
        "meta_mean_motion_dot": 1.854e-05,
        "meta_mean_motion_ddot": 0,
        "tle_line1": "1 35155U 99025DMK 25347.48089639  .00001854  00000+0  90034-3 0  9998",
        "tle_line2": "2 35155  98.5012 359.1210 0026099  70.7543 289.6454 14.19285709727245"
      },
      "geometry": {
        "type": "Point",
        "coordinates": [
          171.7296443168384,
          -61.555490158150825
        ]
      }
    },
    {
      "type": "Feature",
      "properties": {
        "norad_id": 35156,
        "name": "FENGYUN 1C DEB",
        "group": "fengyun-1c-debris",
        "lat": 18.94828294005878,
        "lon": -20.384585154215902,
        "alt_km": 862.6015234362494,
        "timestamp": "2025-12-22T11:33:20.727152+00:00",
        "meta_object_name": "FENGYUN 1C DEB",
        "meta_object_id": "1999-025DML",
        "meta_epoch": "2025-12-12T16:32:42.860544",
        "meta_mean_motion": 14.10626157,
        "meta_eccentricity": 0.00370025,
        "meta_inclination": 98.7527,
        "meta_ra_of_asc_node": 333.1123,
        "meta_arg_of_pericenter": 148.5895,
        "meta_mean_anomaly": 211.7497,
        "meta_ephemeris_type": 0,
        "meta_classification_type": "U",
        "meta_norad_cat_id": 35156,
        "meta_element_set_no": 999,
        "meta_rev_at_epoch": 64043,
        "meta_bstar": 0.00049181464,
        "meta_mean_motion_dot": 8.41e-06,
        "meta_mean_motion_ddot": 0,
        "tle_line1": "1 35156U 99025DML 25346.68938496  .00000841  00000+0  49181-3 0  9996",
        "tle_line2": "2 35156  98.7527 333.1123 0037002 148.5895 211.7497 14.10626157640439"
      },
      "geometry": {
        "type": "Point",
        "coordinates": [
          -20.384585154215902,
          18.94828294005878
        ]
      }
    },
    {
      "type": "Feature",
      "properties": {
        "norad_id": 35159,
        "name": "FENGYUN 1C DEB",
        "group": "fengyun-1c-debris",
        "lat": -14.483895585104044,
        "lon": -110.2231783247879,
        "alt_km": 739.8969626807593,
        "timestamp": "2025-12-22T11:33:20.727162+00:00",
        "meta_object_name": "FENGYUN 1C DEB",
        "meta_object_id": "1999-025DMP",
        "meta_epoch": "2025-12-18T03:56:12.547968",
        "meta_mean_motion": 14.45218567,
        "meta_eccentricity": 0.00125233,
        "meta_inclination": 98.8399,
        "meta_ra_of_asc_node": 67.5884,
        "meta_arg_of_pericenter": 158.7222,
        "meta_mean_anomaly": 265.4799,
        "meta_ephemeris_type": 0,
        "meta_classification_type": "U",
        "meta_norad_cat_id": 35159,
        "meta_element_set_no": 999,
        "meta_rev_at_epoch": 61559,
        "meta_bstar": 0.0014431144,
        "meta_mean_motion_dot": 5.018e-05,
        "meta_mean_motion_ddot": 0,
        "tle_line1": "1 35159U 99025DMP 25352.16403412  .00005018  00000+0  14431-2 0  9994",
        "tle_line2": "2 35159  98.8399  67.5884 0012523 158.7222 265.4799 14.45218567615590"
      },
      "geometry": {
        "type": "Point",
        "coordinates": [
          -110.2231783247879,
          -14.483895585104044
        ]
      }
    },
    {
      "type": "Feature",
      "properties": {
        "norad_id": 35160,
        "name": "FENGYUN 1C DEB",
        "group": "fengyun-1c-debris",
        "lat": -45.30040165077387,
        "lon": 120.89428097393198,
        "alt_km": 804.8631114522304,
        "timestamp": "2025-12-22T11:33:20.727172+00:00",
        "meta_object_name": "FENGYUN 1C DEB",
        "meta_object_id": "1999-025DMQ",
        "meta_epoch": "2025-12-16T13:37:44.190912",
        "meta_mean_motion": 14.35976797,
        "meta_eccentricity": 0.01760845,
        "meta_inclination": 99.155,
        "meta_ra_of_asc_node": 105.2355,
        "meta_arg_of_pericenter": 228.1924,
        "meta_mean_anomaly": 130.4106,
        "meta_ephemeris_type": 0,
        "meta_classification_type": "U",
        "meta_norad_cat_id": 35160,
        "meta_element_set_no": 999,
        "meta_rev_at_epoch": 64986,
        "meta_bstar": 0.00041002814,
        "meta_mean_motion_dot": 1.364e-05,
        "meta_mean_motion_ddot": 0,
        "tle_line1": "1 35160U 99025DMQ 25350.56787258  .00001364  00000+0  41003-3 0  9997",
        "tle_line2": "2 35160  99.1550 105.2355 0176084 228.1924 130.4106 14.35976797649867"
      },
      "geometry": {
        "type": "Point",
        "coordinates": [
          120.89428097393198,
          -45.30040165077387
        ]
      }
    }
  ]
}